PROBA-1                 
1 26958U 01049B   26176.83194175  .00003669  00000+0  23747-3 0  9993
2 26958  97.9605 185.6657 0056402  93.6130 267.1549 15.07531158344927
CUTE-1 (CO-55)          
1 27844U 03031E   26176.53717468  .00000284  00000+0  14177-3 0  9991
2 27844  98.6736 184.9911 0010043 154.4508 205.7169 14.24340467192865
CUBESAT XI-IV (CO-57)   
1 27848U 03031J   26176.52982313  .00000243  00000+0  12557-3 0  9992
2 27848  98.6767 184.6898 0009568 172.4685 187.6639 14.23624963192562
APRIZESAT 4             
1 35684U 09041D   26176.14652464  .00000593  00000+0  77388-4 0  9997
2 35684  98.1409 251.6256 0042011 296.5870  63.1042 14.83888656912545
APRIZESAT 3             
1 35686U 09041F   26176.39137990  .00001200  00000+0  10807-3 0  9996
2 35686  98.2074 330.0086 0062609  41.0217 319.5687 14.96266472917607
PROBA-2                 
1 36037U 09059B   26176.49353524  .00000196  00000+0  56265-4 0  9992
2 36037  98.2452 359.7311 0011974 253.6382 106.3499 14.54865679882736
APRIZESAT 5             
1 37792U 11044E   26176.72228859  .00001018  00000+0  13580-3 0  9992
2 37792  98.2452 110.0046 0051639 336.7782  23.1096 14.81092885800052
APRIZESAT 6             
1 37793U 11044F   26176.68362860  .00000754  00000+0  11329-3 0  9994
2 37793  98.2358  87.3565 0044331  59.6909   3.8194 14.76927988798407
PROBA-V                 
1 39159U 13021A   26176.83446028  .00000078  00000+0  52407-4 0  9997
2 39159  98.3588 155.0144 0005383 103.6108 256.5672 14.23598837682344
APRIZESAT 7             
1 39416U 13066A   26176.87501948  .00001122  00000+0  11626-3 0  9997
2 39416  97.7710 129.9700 0035753 179.9977 180.1248 14.91580198682529
APRIZESAT 8             
1 39425U 13066K   26176.81811803  .00000826  00000+0  95359-4 0  9991
2 39425  97.8222 124.1658 0044374 257.1749 102.4507 14.87666692680951
BUGSAT-1 (TITA)         
1 40014U 14033E   26176.81701166  .00007798  00000+0  40937-3 0  9998
2 40014  98.0423 269.8714 0028608 149.2480 211.0435 15.15675037657145
SAUDISAT 4              
1 40016U 14033G   26176.84303425  .00000567  00000+0  81336-4 0  9995
2 40016  97.7592 322.6786 0045795  46.6054 313.8957 14.79554772647353
APRIZESAT 9             
1 40018U 14033J   26176.82762062  .00000704  00000+0  11065-3 0  9995
2 40018  97.9069 309.8154 0066378 171.3507 188.8862 14.74226017644839
APRIZESAT 10            
1 40019U 14033K   26176.83415455  .00000467  00000+0  81213-4 0  9997
2 40019  97.9658 303.6012 0077520 245.7396 113.5699 14.70890100643526
TECHDEMOSAT-1 (TDS-1)   
1 40076U 14037H   26176.55571683  .00008879  00000+0  50120-3 0  9996
2 40076  98.3814 169.5984 0004926 227.5309 132.5504 15.13406956649495
TECHNOSAT               
1 42829U 17042E   26176.69320939  .00003235  00000+0  23119-3 0  9993
2 42829  97.4294 334.0282 0019327  67.8246 292.5029 15.05009734487988
FLYING LAPTOP           
1 42831U 17042G   26176.85087811  .00006860  00000+0  53664-3 0  9998
2 42831  97.4722 332.0529 0019965  94.0283 266.3224 15.01202832487751
HAWK-A                  
1 43765U 18099H   26176.68304977  .00007808  00000+0  31345-3 0  9999
2 43765  97.3913 228.8081 0033151 254.4024 105.3554 15.24734855414390
HAWK-B                  
1 43794U 18099AN  26176.71472293  .00006646  00000+0  28289-3 0  9994
2 43794  97.3963 228.2365 0030225 273.3049  86.4730 15.22909740414336
HAWK-C                  
1 43799U 18099AT  26176.70580813  .00009327  00000+0  33448-3 0  9998
2 43799  97.3890 229.7849 0038758 254.2399 105.4565 15.28213042415213
SALSAT                  
1 46495U 20068K   26176.71389502  .00008822  00000+0  30719-3 0  9993
2 46495  97.8851 180.2981 0007800 271.7296  88.3050 15.29911798316664
HAWK-2C                 
1 47502U 21006CT  26176.69366162  .00007785  00000+0  23315-3 0  9991
2 47502  97.2280 220.8338 0007605 157.6099 202.5478 15.34759904300805
HAWK-2A                 
1 47505U 21006CW  26176.69607176  .00007701  00000+0  23058-3 0  9999
2 47505  97.2322 221.5191 0007066 160.2913 199.8605 15.34774307300800
HAWK-2B                 
1 47508U 21006CZ  26176.69108975  .00008842  00000+0  26350-3 0  9990
2 47508  97.2190 219.8320 0007648 159.0299 201.1260 15.34874922300807
HAWK-3B                 
1 48931U 21059BE  26176.54686236  .00053460  00000+0  44001-3 0  9993
2 48931  97.6658  14.0496 0003139 286.2651  73.8265 15.70242469279164
HAWK-3C                 
1 48948U 21059BX  26176.80144416  .00054610  00000+0  44883-3 0  9995
2 48948  97.6777  20.0292 0003394 287.2329  72.8561 15.70271536279201
HAWK-3A                 
1 48957U 21059CG  26176.54639259  .00054935  00000+0  45213-3 0  9998
2 48957  97.6722  16.9475 0003378 289.9026  70.1871 15.70236168279165
HAWK-5C                 
1 52754U 22057Y   26176.68643794  .00022671  00000+0  38231-3 0  9995
2 52754  97.6604 336.9034 0004405  56.1556 304.0114 15.51673556227666
HAWK-5B                 
1 52756U 22057AA  26176.68627608  .00022811  00000+0  38456-3 0  9998
2 52756  97.6612 335.2532 0005053  48.3219 311.8464 15.51676680227666
HAWK-5A                 
1 52757U 22057AB  26176.68607579  .00022602  00000+0  38110-3 0  9999
2 52757  97.6609 336.0843 0004948  51.1839 308.9854 15.51675115227661
